ONEWEB-0228             
1 48780U 21045P   24193.80557223  .00000361  00000+0  93188-3 0  9991
2 48780  87.9024  39.5500 0001839  78.5454 281.5883 13.15068876152711
